ACS3                    
1 59588U 24077B   24256.73718709  .00096693  00000+0  11055+0 0  9999
2 59588  97.4174 304.5712 0037833 223.6106 136.2054 13.68758974 19374
